{
    "links": {
        "self": "http://www.neowsapp.com/rest/v1/neo/3092475?api_key=iIulBulltgU6a56xZRHN4H3l9WmuAYTsLGpBGhQ2"
    },
    "id": "3092475",
    "neo_reference_id": "3092475",
    "name": "(2001 VD2)",
    "designation": "2001 VD2",
    "nasa_jpl_url": "http://ssd.jpl.nasa.gov/sbdb.cgi?sstr=3092475",
    "absolute_magnitude_h": 25.6,
    "estimated_diameter": {
        "kilometers": {
            "estimated_diameter_min": 0.0201629919,
            "estimated_diameter_max": 0.0450858206
        },
        "meters": {
            "estimated_diameter_min": 20.1629919443,
            "estimated_diameter_max": 45.0858206172
        },
        "miles": {
            "estimated_diameter_min": 0.0125286985,
            "estimated_diameter_max": 0.0280150214
        },
        "feet": {
            "estimated_diameter_min": 66.1515504905,
            "estimated_diameter_max": 147.9193637137
        }
    },
    "is_potentially_hazardous_asteroid": false,
    "close_approach_data": [
        {
            "close_approach_date": "1919-01-08",
            "close_approach_date_full": "1919-Jan-08 20:15",
            "epoch_date_close_approach": -1608781500000,
            "relative_velocity": {
                "kilometers_per_second": "18.0417563631",
                "kilometers_per_hour": "64950.3229071316",
                "miles_per_hour": "40357.6048086007"
            },
            "miss_distance": {
                "astronomical": "0.3441710647",
                "lunar": "133.8825441683",
                "kilometers": "51487258.194752189",
                "miles": "31992698.7210666482"
            },
            "orbiting_body": "Earth"
        },
        {
            "close_approach_date": "2001-11-11",
            "close_approach_date_full": "2001-Nov-11 23:50",
            "epoch_date_close_approach": 1005522600000,
            "relative_velocity": {
                "kilometers_per_second": "8.2911425857",
                "kilometers_per_hour": "29848.1133085159",
                "miles_per_hour": "18546.4568499498"
            },
            "miss_distance": {
                "astronomical": "0.0220484914",
                "lunar": "8.5768631546",
                "kilometers": "3298407.350153318",
                "miles": "2049535.2891710684"
            },
            "orbiting_body": "Earth"
        }
    ],
    "orbital_data": {
        "orbit_id": "7",
        "orbit_determination_date": "2017-04-06 09:15:52",
        "first_observation_date": "2001-11-09",
        "last_observation_date": "2001-11-11",
        "data_arc_in_days": 2,
        "observations_used": 43,
        "orbit_uncertainty": "8",
        "minimum_orbit_intersection": ".0210971",
        "jupiter_tisserand_invariant": "3.248",
        "epoch_osculation": "2452224.5",
        "eccentricity": ".5857651036166124",
        "semi_major_axis": "2.421871141433076",
        "inclination": "6.05995805565207",
        "ascending_node_longitude": "226.8615310325182",
        "orbital_period": "1376.654552423654",
        "perihelion_distance": "1.003223541325447",
        "perihelion_argument": "194.552192043414",
        "aphelion_distance": "3.840518741540706",
        "perihelion_time": "2452234.849017478915",
        "mean_anomaly": "357.2936955855409",
        "mean_motion": ".261503511804182",
        "equinox": "J2000",
        "orbit_class": {
            "orbit_class_type": "APO",
            "orbit_class_description": "Near-Earth asteroid orbits which cross the Earth’s orbit similar to that of 1862 Apollo",
            "orbit_class_range": "a (semi-major axis) > 1.0 AU; q (perihelion) < 1.017 AU"
        }
    },
    "is_sentry_object": false
}